{
    "links": {
        "self": "http://www.neowsapp.com/rest/v1/neo/54054368?api_key=iIulBulltgU6a56xZRHN4H3l9WmuAYTsLGpBGhQ2"
    },
    "id": "54054368",
    "neo_reference_id": "54054368",
    "name": "(2020 RY7)",
    "designation": "2020 RY7",
    "nasa_jpl_url": "http://ssd.jpl.nasa.gov/sbdb.cgi?sstr=54054368",
    "absolute_magnitude_h": 26.54,
    "estimated_diameter": {
        "kilometers": {
            "estimated_diameter_min": 0.0130784109,
            "estimated_diameter_max": 0.0292442157
        },
        "meters": {
            "estimated_diameter_min": 13.0784108584,
            "estimated_diameter_max": 29.2442157171
        },
        "miles": {
            "estimated_diameter_min": 0.0081265452,
            "estimated_diameter_max": 0.0181715076
        },
        "feet": {
            "estimated_diameter_min": 42.9081734807,
            "estimated_diameter_max": 95.9455926932
        }
    },
    "is_potentially_hazardous_asteroid": false,
    "close_approach_data": [
        {
            "close_approach_date": "1970-06-08",
            "close_approach_date_full": "1970-Jun-08 12:07",
            "epoch_date_close_approach": 13694820000,
            "relative_velocity": {
                "kilometers_per_second": "20.9870150494",
                "kilometers_per_hour": "75553.2541778728",
                "miles_per_hour": "46945.8539640232"
            },
            "miss_distance": {
                "astronomical": "0.0525141149",
                "lunar": "20.4279906961",
                "kilometers": "7855999.733975263",
                "miles": "4881491.8769061094"
            },
            "orbiting_body": "Venus"
        },
        {
            "close_approach_date": "2020-09-20",
            "close_approach_date_full": "2020-Sep-20 10:38",
            "epoch_date_close_approach": 1600598280000,
            "relative_velocity": {
                "kilometers_per_second": "20.553022334",
                "kilometers_per_hour": "73990.8804024101",
                "miles_per_hour": "45975.0556589309"
            },
            "miss_distance": {
                "astronomical": "0.0066972564",
                "lunar": "2.6052327396",
                "kilometers": "1001895.292283868",
                "miles": "622548.8666506584"
            },
            "orbiting_body": "Earth"
        },
        {
            "close_approach_date": "2020-09-20",
            "close_approach_date_full": "2020-Sep-20 13:57",
            "epoch_date_close_approach": 1600610220000,
            "relative_velocity": {
                "kilometers_per_second": "21.2482031224",
                "kilometers_per_hour": "76493.5312406832",
                "miles_per_hour": "47530.1055645234"
            },
            "miss_distance": {
                "astronomical": "0.0073967544",
                "lunar": "2.8773374616",
                "kilometers": "1106538.703153128",
                "miles": "687571.2670360464"
            },
            "orbiting_body": "Moon"
        },
        {
            "close_approach_date": "2023-04-10",
            "close_approach_date_full": "2023-Apr-10 07:17",
            "epoch_date_close_approach": 1681111020000,
            "relative_velocity": {
                "kilometers_per_second": "26.4536880993",
                "kilometers_per_hour": "95233.2771574591",
                "miles_per_hour": "59174.2549093112"
            },
            "miss_distance": {
                "astronomical": "0.2019414295",
                "lunar": "78.5552160755",
                "kilometers": "30210007.717955165",
                "miles": "18771628.343964677"
            },
            "orbiting_body": "Earth"
        },
        {
            "close_approach_date": "2156-01-06",
            "close_approach_date_full": "2156-Jan-06 15:37",
            "epoch_date_close_approach": 5870072220000,
            "relative_velocity": {
                "kilometers_per_second": "21.3307308007",
                "kilometers_per_hour": "76790.6308824779",
                "miles_per_hour": "47714.7117280597"
            },
            "miss_distance": {
                "astronomical": "0.4256387407",
                "lunar": "165.5734701323",
                "kilometers": "63674648.998202309",
                "miles": "39565592.2065935042"
            },
            "orbiting_body": "Earth"
        }
    ],
    "orbital_data": {
        "orbit_id": "4",
        "orbit_determination_date": "2020-09-20 06:39:34",
        "first_observation_date": "2020-09-13",
        "last_observation_date": "2020-09-20",
        "data_arc_in_days": 7,
        "observations_used": 36,
        "orbit_uncertainty": "8",
        "minimum_orbit_intersection": ".00611725",
        "jupiter_tisserand_invariant": "3.836",
        "epoch_osculation": "2459107.5",
        "eccentricity": ".6815596034028765",
        "semi_major_axis": "1.740336005305295",
        "inclination": ".972077489781751",
        "ascending_node_longitude": "336.7770087041887",
        "orbital_period": "838.5869212339767",
        "perihelion_distance": ".5541932877416719",
        "perihelion_argument": "117.0899546634447",
        "aphelion_distance": "2.926478722868919",
        "perihelion_time": "2459161.902498656878",
        "mean_anomaly": "336.6453553942184",
        "mean_motion": ".4292936019921008",
        "equinox": "J2000",
        "orbit_class": {
            "orbit_class_type": "APO",
            "orbit_class_description": "Near-Earth asteroid orbits which cross the Earth’s orbit similar to that of 1862 Apollo",
            "orbit_class_range": "a (semi-major axis) > 1.0 AU; q (perihelion) < 1.017 AU"
        }
    },
    "is_sentry_object": false
}